{
  "links" : {
    "next" : "https://api.nasa.gov/neo/rest/v1/feed?start_date=2015-12-16&end_date=2015-12-16&detailed=true&api_key=t0TVs3DtDT2H8Oy2Zy8m2eVrNsAVKAexjcZXUckd",
    "prev" : "https://api.nasa.gov/neo/rest/v1/feed?start_date=2015-12-14&end_date=2015-12-14&detailed=true&api_key=t0TVs3DtDT2H8Oy2Zy8m2eVrNsAVKAexjcZXUckd",
    "self" : "https://api.nasa.gov/neo/rest/v1/feed?start_date=2015-12-15&end_date=2015-12-15&detailed=true&api_key=t0TVs3DtDT2H8Oy2Zy8m2eVrNsAVKAexjcZXUckd"
  },
  "element_count" : 7,
  "near_earth_objects" : {
    "2015-12-15" : [ {
      "links" : {
        "self" : "https://api.nasa.gov/neo/rest/v1/neo/3736807?api_key=t0TVs3DtDT2H8Oy2Zy8m2eVrNsAVKAexjcZXUckd"
      },
      "neo_reference_id" : "3736807",
      "name" : "(2015 YA)",
      "nasa_jpl_url" : "http://ssd.jpl.nasa.gov/sbdb.cgi?sstr=3736807",
      "absolute_magnitude_h" : 27.4,
      "estimated_diameter" : {
        "kilometers" : {
          "estimated_diameter_min" : 0.0088014652,
          "estimated_diameter_max" : 0.0196806745
        },
        "meters" : {
          "estimated_diameter_min" : 8.801465209,
          "estimated_diameter_max" : 19.6806745089
        },
        "miles" : {
          "estimated_diameter_min" : 0.0054689752,
          "estimated_diameter_max" : 0.0122290004
        },
        "feet" : {
          "estimated_diameter_min" : 28.8761991163,
          "estimated_diameter_max" : 64.5691441559
        }
      },
      "is_potentially_hazardous_asteroid" : false,
      "close_approach_data" : [ {
        "close_approach_date" : "2015-12-15",
        "epoch_date_close_approach" : 1450166400000,
        "relative_velocity" : {
          "kilometers_per_second" : "8.7788982574",
          "kilometers_per_hour" : "31604.0337265123",
          "miles_per_hour" : "19637.5175118987"
        },
        "miss_distance" : {
          "astronomical" : "0.0038534768",
          "lunar" : "1.4990024567",
          "kilometers" : "576471.9375",
          "miles" : "358203.0625"
        },
        "orbiting_body" : "Earth"
      } ],
      "orbital_data" : {
        "orbit_id" : "7",
        "orbit_determination_date" : "2017-04-06 08:29:46",
        "orbit_uncertainty" : "6",
        "minimum_orbit_intersection" : ".0034944",
        "jupiter_tisserand_invariant" : "6.063",
        "epoch_osculation" : "2458000.5",
        "eccentricity" : ".2793780849302993",
        "semi_major_axis" : ".9961676341362522",
        "inclination" : "1.619224650857182",
        "ascending_node_longitude" : "255.2330250849039",
        "orbital_period" : "363.1592142120169",
        "perihelion_distance" : ".7178602282417189",
        "perihelion_argument" : "83.61802548803247",
        "aphelion_distance" : "1.274475040030785",
        "perihelion_time" : "2458026.626921546686",
        "mean_anomaly" : "334.1003631775795",
        "mean_motion" : ".991300746095974",
        "equinox" : "J2000"
      }
    } ]
  }
}